TRANSPORTER-16 OBJECT AA
1 68440U 26067AA  26104.13871805  .00011772  00000+0  58389-3 0  9992
2 68440  97.4467  63.5552 0000571 343.7655  16.3560 15.17874801  2222
