{
  "norad_id": 68440,
  "name": "TRANSPORTER-16 OBJECT AA",
  "history": [
    {
      "epoch": "2026-04-14T03:19:45.239520Z",
      "apogee_km": 512.6584055104086,
      "perigee_km": 511.87097040550907,
      "latitude_deg": -3.849407326993419e-05,
      "longitude_deg": 171.29726680564798,
      "height_km": 514.9731010564617,
      "semi_major_axis_km": 6890.4016879579585,
      "eccentricity": 5.714e-05,
      "inclination_deg": 97.4467,
      "raan_deg": 63.5552,
      "arg_perigee_deg": 343.7655,
      "mean_anomaly_deg": 16.356,
      "mean_motion_rev_day": 15.17874801
    }
  ]
}